QIANFAN-89              
1 63175U 25046S   25279.18156439  .00000191  00000+0  27746-3 0  9990
2 63175  88.9812 327.0271 0014867 326.7392  33.2823 13.50966984 38283
QIANFAN-90              
1 63176U 25046T   25279.21031171  .00000179  00000+0  25880-3 0  9993
2 63176  88.9810 326.9965 0011773 326.0748  33.9649 13.50969213 38305
